GPS BIIF-7  (PRN 09)    
1 40105U 14045A   26062.35011831  .00000016  00000+0  00000+0 0  9997
2 40105  55.2804  92.6803 0031529 120.5063 239.8766  2.00551389 83950
GPS BIIF-8  (PRN 03)    
1 40294U 14068A   26061.72976413 -.00000072  00000+0  00000+0 0  9990
2 40294  56.9183  35.0563 0062729  68.0429 292.6114  2.00569705 83077
GPS BIIF-9  (PRN 26)    
1 40534U 15013A   26062.35961980 -.00000013  00000+0  00000+0 0  9996
2 40534  53.1865 208.5527 0108741  39.7842 320.9512  2.00557636 79708
GPS BIIF-10 (PRN 08)    
1 40730U 15033A   26062.52018166 -.00000008  00000+0  00000+0 0  9998
2 40730  54.0652 271.4414 0114474  28.9620 331.7017  2.00561598 77876
GPS BIIF-11 (PRN 10)    
1 41019U 15062A   26062.08043405 -.00000074  00000+0  00000+0 0  9999
2 41019  56.8920  34.8990 0111459 231.4865 127.4993  2.00567044 75702
GPS BIIF-12 (PRN 32)    
1 41328U 16007A   26062.16575164  .00000018  00000+0  00000+0 0  9990
2 41328  55.4547  93.6619 0095403 245.9731 113.0958  2.00556827 73716
GPS BIII-1  (PRN 04)    
1 43873U 18109A   26062.31109659  .00000020  00000+0  00000+0 0  9994
2 43873  55.6143  96.3624 0037893 198.2706 159.2601  2.00556693 52944
GPS BIII-2  (PRN 18)    
1 44506U 19056A   26062.19130604 -.00000098  00000+0  00000+0 0  9996
2 44506  55.6853 335.3576 0058023 198.1770 333.1087  2.00568213 47942
GPS BIII-3  (PRN 23)    
1 45854U 20041A   26062.27516370 -.00000078  00000+0  00000+0 0  9994
2 45854  56.6052  33.0526 0061366 205.2583 328.7601  2.00560606 41915
GPS BIII-4  (PRN 14)    
1 46826U 20078A   26062.32582115 -.00000009  00000+0  00000+0 0  9994
2 46826  54.0019 215.0694 0068171 204.2751 339.5247  2.00565507 39384
GPS BIII-5  (PRN 11)    
1 48859U 21054A   26062.49128030 -.00000100  00000+0  00000+0 0  9999
2 48859  55.2215 336.7105 0023865 232.0768 255.4185  2.00575580 34631
GPS BIII-6  (PRN 28)    
1 55268U 23009A   26062.25600392 -.00000002  00000+0  00000+0 0  9994
2 55268  55.1094 152.6829 0004615 335.9551  20.9517  2.00549255 23115
GPS BIII-7  (PRN 01)    
1 62339U 24242A   26059.41642148 -.00000100  00000+0  00000+0 0  9999
2 62339  54.8934 338.5934 0015681 355.9356 192.4850  2.00569355  9070
GPS BIII-8  (PRN 21)    
1 64202U 25116A   26062.39238150 -.00000077  00000+0  00000+0 0  9999
2 64202  55.1633  35.3874 0008474 325.1064  37.8908  2.00553198  5758
GPS BIII-9  (PRN 20)    
1 67588U 26017A   26062.00114748  .00000017  00000+0  00000+0 0  9997
2 67588  55.0177  93.0152 0001488  18.7586 341.3187  2.00560909429482
